NORAD_CAT_ID,OBJECT_NAME,OBJECT_TYPE,EPOCH,MEAN_MOTION,ECCENTRICITY,INCLINATION,RA_OF_ASC_NODE,ARG_OF_PERICENTER,MEAN_ANOMALY,BSTAR,MEAN_MOTION_DOT,MEAN_MOTION_DDOT,TLE_LINE0,TLE_LINE1,TLE_LINE2,SEMIMAJOR_AXIS,PERIOD,APOGEE,PERIGEE,DECAYED
53900.0,STARLINK-5045,PAYLOAD,2024-08-12 11:32:26,15.08822492,0.0001487,53.2193,21.4899,102.4485,257.6673,-4.7193e-05,-1.039e-05,0.0,0 STARLINK-5045,1 53900U 22119Q   24225.48086077 -.00001039  00000-0 -47193-4 0  9990,2 53900  53.2193  21.4899 0001487 102.4485 257.6673 15.08822492104584,6917.934,95.439,540.828,538.77,0.0
53900.0,STARLINK-5045,PAYLOAD,2024-08-12 19:29:19,15.08853559,0.0001268,53.2191,19.9993,105.7751,254.3381,0.00020241,2.936e-05,0.0,0 STARLINK-5045,1 53900U 22119Q   24225.81203230  .00002936  00000-0  20241-3 0  9998,2 53900  53.2191  19.9993 0001268 105.7751 254.3381 15.08853559104632,6917.839,95.437,540.581,538.827,0.0
53900.0,STARLINK-5045,PAYLOAD,2024-08-13 03:26:14,15.08868359,0.0002883,53.2162,18.5141,68.9407,291.1893,0.00029093,4.348e-05,0.0,0 STARLINK-5045,1 53900U 22119Q   24226.14322802  .00004348  00000-0  29093-3 0  9995,2 53900  53.2162  18.5141 0002883  68.9407 291.1893 15.08868359104688,6917.794,95.436,541.653,537.664,0.0
53900.0,STARLINK-5045,PAYLOAD,2024-08-13 16:09:23,15.08787795,0.0001066,53.213,16.1323,76.3875,283.7236,-0.00047946,-7.899e-05,0.0,0 STARLINK-5045,1 53900U 22119Q   24226.67319342 -.00007899  00000-0 -47946-3 0  9991,2 53900  53.2130  16.1323 0001066  76.3875 283.7236 15.08787795104764,6918.04,95.441,540.642,539.168,0.0
53900.0,STARLINK-5045,PAYLOAD,2024-08-14 03:17:05,15.08808857,0.0002579,53.2176,14.0552,78.6447,281.4835,-0.00033176,-5.56e-05,0.0,0 STARLINK-5045,1 53900U 22119Q   24227.13687399 -.00005560  00000-0 -33176-3 0  9996,2 53900  53.2176  14.0552 0002579  78.6447 281.4835 15.08808857104836,6917.976,95.44,541.625,538.056,0.0
53900.0,STARLINK-5045,PAYLOAD,2024-08-14 09:38:37,15.08832074,0.0001248,53.2187,12.866,77.3278,282.7854,1.8615e-05,8e-08,0.0,0 STARLINK-5045,1 53900U 22119Q   24227.40182188  .00000008  00000-0  18615-4 0  9994,2 53900  53.2187  12.8660 0001248  77.3278 282.7854 15.08832074104871,6917.905,95.438,540.633,538.906,0.0
53900.0,STARLINK-5045,PAYLOAD,2024-08-14 14:24:46,15.08839283,0.0001296,53.2171,11.974,71.9538,288.1595,0.00037921,5.752e-05,0.0,0 STARLINK-5045,1 53900U 22119Q   24227.60053822  .00005752  00000-0  37921-3 0  9999,2 53900  53.2171  11.9740 0001296  71.9538 288.1595 15.08839283105327,6917.883,95.438,540.644,538.851,0.0
53900.0,STARLINK-5045,PAYLOAD,2024-08-14 16:00:09,15.08844587,0.0001029,53.216,11.6753,62.9003,297.2094,0.00032401,4.873e-05,0.0,0 STARLINK-5045,1 53900U 22119Q   24227.66677414  .00004873  00000-0  32401-3 0  9995,2 53900  53.2160  11.6753 0001029  62.9003 297.2094 15.08844587104919,6917.866,95.437,540.443,539.02,0.0
53900.0,STARLINK-5045,PAYLOAD,2024-08-15 15:50:56,15.08840812,0.0001592,53.2176,7.2155,75.1899,284.927,0.00051966,7.992e-05,0.0,0 STARLINK-5045,1 53900U 22119Q   24228.66037727  .00007992  00000-0  51966-3 0  9995,2 53900  53.2176   7.2155 0001592  75.1899 284.9270 15.08840812105060,6917.878,95.438,540.844,538.642,0.0
53900.0,STARLINK-5045,PAYLOAD,2024-08-15 20:37:05,15.08845061,8.89e-05,53.2179,6.3206,81.0391,279.0701,0.00017719,2.534e-05,0.0,0 STARLINK-5045,1 53900U 22119Q   24228.85908870  .00002534  00000-0  17719-3 0  9997,2 53900  53.2179   6.3206 0000889  81.0391 279.0701 15.08845061105516,6917.865,95.437,540.345,539.115,0.0
53900.0,STARLINK-5045,PAYLOAD,2024-08-18 12:12:31,15.08840145,0.0001747,53.2193,354.4309,86.2631,273.8561,0.00011608,1.56e-05,0.0,0 STARLINK-5045,1 53900U 22119Q   24231.50869732  .00001560  00000-0  11608-3 0  9995,2 53900  53.2193 354.4309 0001747  86.2631 273.8561 15.08840145105492,6917.88,95.438,540.953,538.536,0.0
53900.0,STARLINK-5045,PAYLOAD,2024-08-18 13:47:53,15.08839193,0.0001282,53.2181,354.1322,94.4793,265.6346,0.0001595,2.251e-05,0.0,0 STARLINK-5045,1 53900U 22119Q   24231.57492988  .00002251  00000-0  15950-3 0  9999,2 53900  53.2181 354.1322 0001282  94.4793 265.6346 15.08839193105924,6917.883,95.438,540.635,538.861,0.0
53900.0,STARLINK-5045,PAYLOAD,2024-08-19 16:49:28,15.08808528,0.0001309,53.2175,349.0771,72.0675,288.046,0.00045666,6.981e-05,0.0,0 STARLINK-5045,1 53900U 22119Q   24232.70102701  .00006981  00000-0  45666-3 0  9997,2 53900  53.2175 349.0771 0001309  72.0675 288.0460 15.08808528105675,6917.977,95.44,540.747,538.936,0.0
53900.0,STARLINK-5045,PAYLOAD,2024-08-20 00:46:23,15.08841023,0.0001236,53.2174,347.5902,73.0013,287.1115,2.3579e-05,8.7e-07,0.0,0 STARLINK-5045,1 53900U 22119Q   24233.03221737  .00000087  00000-0  23579-4 0  9996,2 53900  53.2174 347.5902 0001236  73.0013 287.1115 15.08841023105729,6917.877,95.437,540.597,538.887,0.0
53900.0,STARLINK-5045,PAYLOAD,2024-08-20 13:29:28,15.08846133,0.000161,53.2192,345.2106,104.4921,255.625,3.7072e-05,3.02e-06,0.0,0 STARLINK-5045,1 53900U 22119Q   24233.56213251  .00000302  00000-0  37072-4 0  9999,2 53900  53.2192 345.2106 0001610 104.4921 255.6250 15.08846133106226,6917.862,95.437,540.84,538.613,0.0
53900.0,STARLINK-5045,PAYLOAD,2024-08-20 15:04:50,15.08854751,9.6e-05,53.2171,344.9135,106.0446,254.0652,0.00012973,1.778e-05,0.0,0 STARLINK-5045,1 53900U 22119Q   24233.62836413  .00001778  00000-0  12973-3 0  9997,2 53900  53.2171 344.9135 0000960 106.0446 254.0652 15.08854751105816,6917.835,95.437,540.364,539.036,0.0
53900.0,STARLINK-5045,PAYLOAD,2024-08-21 11:44:52,15.08835612,0.0001322,53.2179,341.0448,82.7442,277.37,2.6967e-05,1.41e-06,0.0,0 STARLINK-5045,1 53900U 22119Q   24234.48950189  .00000141  00000-0  26967-4 0  9991,2 53900  53.2179 341.0448 0001322  82.7442 277.3700 15.08835612105949,6917.894,95.438,540.673,538.844,0.0
53900.0,STARLINK-5045,PAYLOAD,2024-08-21 13:20:16,15.08836021,0.000142,53.218,340.7474,82.0204,278.0949,3.1262e-05,2.1e-06,0.0,0 STARLINK-5045,1 53900U 22119Q   24234.55574197  .00000210  00000-0  31262-4 0  9991,2 53900  53.2180 340.7474 0001420  82.0204 278.0949 15.08836021106370,6917.893,95.438,540.74,538.775,0.0
